start=new Date('2021-09-26T00:00:00.000Z').valueOf();
sats=[{"SEMIMAJOR_AXIS":"6925.321","NORAD_CAT_ID":"44748","BSTAR":"0.00006179100000","MEAN_ELEMENT_THEORY":"SGP4","REF_FRAME":"TEME","MEAN_MOTION":"15.06409103","ARG_OF_PERICENTER":"80.4108","RCS_SIZE":"LARGE","DECAY_DATE":null,"TLE_LINE2":"2 44748  53.0550 327.0594 0000941  80.4108 279.6988 15.06409103103082","EPHEMERIS_TYPE":"0","COUNTRY_CODE":"US","OBJECT_NAME":"STARLINK-1043","TLE_LINE1":"1 44748U 19074AM  21268.45745759  .00000639  00000-0  61791-4 0  9999","PERIAPSIS":"546.534","ECCENTRICITY":"0.00009410","OBJECT_ID":"2019-074AM","OBJECT_TYPE":"PAYLOAD","RA_OF_ASC_NODE":"327.0594","MEAN_ANOMALY":"279.6988","PERIOD":"95.592","REV_AT_EPOCH":"10308","CLASSIFICATION_TYPE":"U","APOAPSIS":"547.837","FILE":"3128274","EPOCH":"2021-09-25T10:58:44.335776","LAUNCH_DATE":"2019-11-11","TIME_SYSTEM":"UTC","SITE":"AFETR","INCLINATION":"53.0550","CENTER_NAME":"EARTH","ELEMENT_SET_NO":"999","MEAN_MOTION_DOT":"0.00000639","MEAN_MOTION_DDOT":"0.0000000000000","GP_ID":"185505135"},{"SEMIMAJOR_AXIS":"6681.680","NORAD_CAT_ID":"44749","BSTAR":"0.00064273000000","MEAN_ELEMENT_THEORY":"SGP4","REF_FRAME":"TEME","ARG_OF_PERICENTER":"274.3232","MEAN_MOTION":"15.89550245","DECAY_DATE":null,"RCS_SIZE":"LARGE","TLE_LINE2":"2 44749  53.0527 256.2854 0008063 274.3232  85.6872 15.89550245104054","TLE_LINE1":"1 44749U 19074AN  21268.26790679  .00189890  24111-4  64273-3 0  9997","ECCENTRICITY":"0.00080630","PERIAPSIS":"298.157","OBJECT_NAME":"STARLINK-1044","EPHEMERIS_TYPE":"0","COUNTRY_CODE":"US","OBJECT_ID":"2019-074AN","OBJECT_TYPE":"PAYLOAD","MEAN_ANOMALY":"85.6872","RA_OF_ASC_NODE":"256.2854","PERIOD":"90.592","REV_AT_EPOCH":"10405","APOAPSIS":"308.932","EPOCH":"2021-09-25T06:25:47.146656","FILE":"3128274","CLASSIFICATION_TYPE":"U","LAUNCH_DATE":"2019-11-11","TIME_SYSTEM":"UTC","SITE":"AFETR","INCLINATION":"53.0527","CENTER_NAME":"EARTH","ELEMENT_SET_NO":"999","MEAN_MOTION_DOT":"0.00189890","GP_ID":"185504384","MEAN_MOTION_DDOT":"0.0000241110000"},{"MEAN_ELEMENT_THEORY":"SGP4","REF_FRAME":"TEME","BSTAR":"0.00000401500000","SEMIMAJOR_AXIS":"6925.334","NORAD_CAT_ID":"44751","MEAN_MOTION":"15.06404713","ARG_OF_PERICENTER":"89.0055","RCS_SIZE":"LARGE","DECAY_DATE":null,"TLE_LINE2":"2 44751  53.0562 327.0000 0000830  89.0055 271.1030 15.06404713103081","COUNTRY_CODE":"US","EPHEMERIS_TYPE":"0","TLE_LINE1":"1 44751U 19074AQ  21268.47221093 -.00000221  00000-0  40150-5 0  9990","PERIAPSIS":"546.624","ECCENTRICITY":"0.00008300","OBJECT_NAME":"STARLINK-1046","OBJECT_TYPE":"PAYLOAD","OBJECT_ID":"2019-074AQ","RA_OF_ASC_NODE":"327.0000","MEAN_ANOMALY":"271.1030","PERIOD":"95.592","REV_AT_EPOCH":"10308","CLASSIFICATION_TYPE":"U","EPOCH":"2021-09-25T11:19:59.024352","FILE":"3128274","APOAPSIS":"547.774","LAUNCH_DATE":"2019-11-11","TIME_SYSTEM":"UTC","SITE":"AFETR","INCLINATION":"53.0562","ELEMENT_SET_NO":"999","CENTER_NAME":"EARTH","MEAN_MOTION_DOT":"-0.00000221","MEAN_MOTION_DDOT":"0.0000000000000","GP_ID":"185504634"},{"CENTER_NAME":"EARTH","ELEMENT_SET_NO":"999","MEAN_MOTION_DOT":"-0.00000244","GP_ID":"185505386","MEAN_MOTION_DDOT":"0.0000000000000","REV_AT_EPOCH":"10335","APOAPSIS":"547.762","EPOCH":"2021-09-25T10:13:38.919360","FILE":"3128274","CLASSIFICATION_TYPE":"U","TIME_SYSTEM":"UTC","LAUNCH_DATE":"2019-11-11","INCLINATION":"53.0538","SITE":"AFETR","TLE_LINE1":"1 44752U 19074AR  21268.42614490 -.00000244  00000-0  24778-5 0  9996","PERIAPSIS":"546.722","OBJECT_NAME":"STARLINK-1047","ECCENTRICITY":"0.00007510","EPHEMERIS_TYPE":"0","COUNTRY_CODE":"US","OBJECT_ID":"2019-074AR","OBJECT_TYPE":"PAYLOAD","MEAN_ANOMALY":"263.6533","RA_OF_ASC_NODE":"307.1983","PERIOD":"95.593","SEMIMAJOR_AXIS":"6925.377","NORAD_CAT_ID":"44752","BSTAR":"0.00000247780000","MEAN_ELEMENT_THEORY":"SGP4","REF_FRAME":"TEME","ARG_OF_PERICENTER":"96.4541","MEAN_MOTION":"15.06390594","DECAY_DATE":null,"RCS_SIZE":"LARGE","TLE_LINE2":"2 44752  53.0538 307.1983 0000751  96.4541 263.6533 15.06390594103353"},{"REV_AT_EPOCH":"10368","CLASSIFICATION_TYPE":"U","EPOCH":"2021-09-25T18:19:18.805440","FILE":"3128274","APOAPSIS":"547.836","LAUNCH_DATE":"2019-11-11","TIME_SYSTEM":"UTC","SITE":"AFETR","INCLINATION":"53.0544","ELEMENT_SET_NO":"999","CENTER_NAME":"EARTH","MEAN_MOTION_DOT":"-0.00000476","MEAN_MOTION_DDOT":"0.0000000000000","GP_ID":"185505636","MEAN_ELEMENT_THEORY":"SGP4","REF_FRAME":"TEME","NORAD_CAT_ID":"44753","SEMIMAJOR_AXIS":"6925.361","BSTAR":"-0.00001306100000","MEAN_MOTION":"15.06395974","ARG_OF_PERICENTER":"84.8641","RCS_SIZE":"LARGE","DECAY_DATE":null,"TLE_LINE2":"2 44753  53.0544 285.6989 0000881  84.8641 275.2448 15.06395974103680","COUNTRY_CODE":"US","EPHEMERIS_TYPE":"0","TLE_LINE1":"1 44753U 19074AS  21268.76341210 -.00000476  00000-0 -13061-4 0  9991","PERIAPSIS":"546.616","OBJECT_NAME":"STARLINK-1048","ECCENTRICITY":"0.00008810","OBJECT_TYPE":"PAYLOAD","OBJECT_ID":"2019-074AS","RA_OF_ASC_NODE":"285.6989","MEAN_ANOMALY":"275.2448","PERIOD":"95.592"},{"ELEMENT_SET_NO":"999","CENTER_NAME":"EARTH","MEAN_MOTION_DOT":"0.00000343","GP_ID":"185503884","MEAN_MOTION_DDOT":"0.0000000000000","REV_AT_EPOCH":"10368","EPOCH":"2021-09-25T18:24:36.900000","FILE":"3128274","APOAPSIS":"547.882","CLASSIFICATION_TYPE":"U","TIME_SYSTEM":"UTC","LAUNCH_DATE":"2019-11-11","INCLINATION":"53.0538","SITE":"AFETR","ECCENTRICITY":"0.00009540","TLE_LINE1":"1 44754U 19074AT  21268.76709375  .00000343  00000-0  41884-4 0  9997","PERIAPSIS":"546.561","OBJECT_NAME":"STARLINK-1049","COUNTRY_CODE":"US","EPHEMERIS_TYPE":"0","OBJECT_TYPE":"PAYLOAD","OBJECT_ID":"2019-074AT","MEAN_ANOMALY":"293.8202","RA_OF_ASC_NODE":"285.6734","PERIOD":"95.592","MEAN_ELEMENT_THEORY":"SGP4","REF_FRAME":"TEME","BSTAR":"0.00004188400000","SEMIMAJOR_AXIS":"6925.356","NORAD_CAT_ID":"44754","ARG_OF_PERICENTER":"66.2887","MEAN_MOTION":"15.06397464","RCS_SIZE":"LARGE","DECAY_DATE":null,"TLE_LINE2":"2 44754  53.0538 285.6734 0000954  66.2887 293.8202 15.06397464103689"},{"OBJECT_TYPE":"PAYLOAD","OBJECT_ID":"2019-074AU","EPHEMERIS_TYPE":"0","COUNTRY_CODE":"US","PERIAPSIS":"546.358","TLE_LINE1":"1 44755U 19074AU  21268.48602634 -.00001101  00000-0 -55054-4 0  9996","OBJECT_NAME":"STARLINK-1050","ECCENTRICITY":"0.00012600","PERIOD":"95.592","RA_OF_ASC_NODE":"326.9663","MEAN_ANOMALY":"275.3047","MEAN_MOTION":"15.06394484","ARG_OF_PERICENTER":"84.8086","BSTAR":"-0.00005505400000","SEMIMAJOR_AXIS":"6925.365","NORAD_CAT_ID":"44755","MEAN_ELEMENT_THEORY":"SGP4","REF_FRAME":"TEME","TLE_LINE2":"2 44755  53.0557 326.9663 0001260  84.8086 275.3047 15.06394484103635","RCS_SIZE":"LARGE","DECAY_DATE":null,"MEAN_MOTION_DOT":"-0.00001101","CENTER_NAME":"EARTH","ELEMENT_SET_NO":"999","MEAN_MOTION_DDOT":"0.0000000000000","GP_ID":"185504134","CLASSIFICATION_TYPE":"U","APOAPSIS":"548.103","EPOCH":"2021-09-25T11:39:52.675776","FILE":"3128274","REV_AT_EPOCH":"10363","INCLINATION":"53.0557","SITE":"AFETR","LAUNCH_DATE":"2019-11-11","TIME_SYSTEM":"UTC"},{"MEAN_MOTION_DOT":"0.00016777","CENTER_NAME":"EARTH","ELEMENT_SET_NO":"999","GP_ID":"185504886","MEAN_MOTION_DDOT":"0.0000000000000","APOAPSIS":"363.960","EPOCH":"2021-09-25T14:47:05.577792","FILE":"3128274","CLASSIFICATION_TYPE":"U","REV_AT_EPOCH":"10438","SITE":"AFETR","INCLINATION":"53.0522","TIME_SYSTEM":"UTC","LAUNCH_DATE":"2019-11-11","OBJECT_ID":"2019-074AV","OBJECT_TYPE":"PAYLOAD","PERIAPSIS":"359.376","TLE_LINE1":"1 44756U 19074AV  21268.61603678  .00016777  00000-0  14705-3 0  9991","OBJECT_NAME":"STARLINK-1051","ECCENTRICITY":"0.00034010","EPHEMERIS_TYPE":"0","COUNTRY_CODE":"US","PERIOD":"91.776","MEAN_ANOMALY":"348.6041","RA_OF_ASC_NODE":"234.7710","ARG_OF_PERICENTER":"11.5053","MEAN_MOTION":"15.69032637","BSTAR":"0.00014705000000","SEMIMAJOR_AXIS":"6739.803","NORAD_CAT_ID":"44756","MEAN_ELEMENT_THEORY":"SGP4","REF_FRAME":"TEME","TLE_LINE2":"2 44756  53.0522 234.7710 0003401  11.5053 348.6041 15.69032637104386","DECAY_DATE":null,"RCS_SIZE":"LARGE"},{"OBJECT_NAME":"STARLINK-1052","TLE_LINE1":"1 44757U 19074AW  21268.37085271  .00002427  00000-0  18173-3 0  9998","PERIAPSIS":"546.632","ECCENTRICITY":"0.00007920","COUNTRY_CODE":"US","EPHEMERIS_TYPE":"0","OBJECT_TYPE":"PAYLOAD","OBJECT_ID":"2019-074AW","MEAN_ANOMALY":"265.0609","RA_OF_ASC_NODE":"307.4361","PERIOD":"95.591","MEAN_ELEMENT_THEORY":"SGP4","REF_FRAME":"TEME","NORAD_CAT_ID":"44757","SEMIMAJOR_AXIS":"6925.315","BSTAR":"0.00018173000000","ARG_OF_PERICENTER":"95.0470","MEAN_MOTION":"15.06410795","RCS_SIZE":"LARGE","DECAY_DATE":null,"TLE_LINE2":"2 44757  53.0542 307.4361 0000792  95.0470 265.0609 15.06410795103342","ELEMENT_SET_NO":"999","CENTER_NAME":"EARTH","MEAN_MOTION_DOT":"0.00002427","GP_ID":"185505136","MEAN_MOTION_DDOT":"0.0000000000000","REV_AT_EPOCH":"10334","FILE":"3128274","EPOCH":"2021-09-25T08:54:01.674144","APOAPSIS":"547.729","CLASSIFICATION_TYPE":"U","LAUNCH_DATE":"2019-11-11","TIME_SYSTEM":"UTC","SITE":"AFETR","INCLINATION":"53.0542"},{"PERIOD":"95.593","RA_OF_ASC_NODE":"327.1066","MEAN_ANOMALY":"228.6226","OBJECT_TYPE":"PAYLOAD","OBJECT_ID":"2019-074AX","COUNTRY_CODE":"US","EPHEMERIS_TYPE":"0","TLE_LINE1":"1 44758U 19074AX  21268.44547250 -.00000628  00000-0 -23286-4 0  9992","OBJECT_NAME":"STARLINK-1053","PERIAPSIS":"546.524","ECCENTRICITY":"0.00010530","TLE_LINE2":"2 44758  53.0545 327.1066 0001053 131.4853 228.6226 15.06387027103080","RCS_SIZE":"LARGE","DECAY_DATE":null,"MEAN_MOTION":"15.06387027","ARG_OF_PERICENTER":"131.4853","REF_FRAME":"TEME","MEAN_ELEMENT_THEORY":"SGP4","NORAD_CAT_ID":"44758","SEMIMAJOR_AXIS":"6925.388","BSTAR":"-0.00002328600000","MEAN_MOTION_DDOT":"0.0000000000000","GP_ID":"185504385","MEAN_MOTION_DOT":"-0.00000628","ELEMENT_SET_NO":"999","CENTER_NAME":"EARTH","INCLINATION":"53.0545","SITE":"AFETR","TIME_SYSTEM":"UTC","LAUNCH_DATE":"2019-11-11","CLASSIFICATION_TYPE":"U","EPOCH":"2021-09-25T10:41:28.824000","FILE":"3128274","APOAPSIS":"547.983","REV_AT_EPOCH":"10308"}];
